{
  "norad_id": 64204,
  "name": "STARLINK-34331",
  "history": [
    {
      "epoch": "2026-03-28T21:30:49.181184",
      "apogee_km": 476.0864067962766,
      "perigee_km": 474.3732021624937,
      "latitude_deg": -29.44197995626575,
      "longitude_deg": -33.54535424010828,
      "semi_major_axis_km": 6853.366804479385,
      "eccentricity": 0.00012499,
      "inclination_deg": 53.1584,
      "raan_deg": 310.5843,
      "arg_perigee_deg": 98.4623,
      "mean_anomaly_deg": 261.652,
      "mean_motion_rev_day": 15.30195065
    }
  ]
}