{"fetched_at":"2026-03-29T16:36:15Z","count":15609,"tles":[{"name":"STARLINK-34331","line1":"1 64204U 25117B   26087.89640256  .00027196  00000+0  92713-3 0  9994","line2":"2 64204  53.1584 310.5843 0001249  98.4623 261.6520 15.30195065 47464","category":"Starlink"}]}